[{"OBJECT_NAME":"STARLINK-2433","OBJECT_ID":"2021-018BG","EPOCH":"2026-03-09T16:09:20.484864","MEAN_MOTION":15.06389668,"ECCENTRICITY":0.00013526,"INCLINATION":53.0555,"RA_OF_ASC_NODE":231.6908,"ARG_OF_PERICENTER":104.5214,"MEAN_ANOMALY":255.5925,"EPHEMERIS_TYPE":0,"CLASSIFICATION_TYPE":"U","NORAD_CAT_ID":47841,"ELEMENT_SET_NO":999,"REV_AT_EPOCH":27687,"BSTAR":0.00014374564,"MEAN_MOTION_DOT":1.86e-5,"MEAN_MOTION_DDOT":0},{"OBJECT_NAME":"CZ-4C DEB","OBJECT_ID":"2010-038E","EPOCH":"2026-03-08T13:52:01.201152","MEAN_MOTION":14.99820212,"ECCENTRICITY":0.00772359,"INCLINATION":97.9453,"RA_OF_ASC_NODE":199.3713,"ARG_OF_PERICENTER":309.8702,"MEAN_ANOMALY":49.5744,"EPHEMERIS_TYPE":0,"CLASSIFICATION_TYPE":"U","NORAD_CAT_ID":37569,"ELEMENT_SET_NO":999,"REV_AT_EPOCH":82446,"BSTAR":0.0019249603,"MEAN_MOTION_DOT":0.00025376,"MEAN_MOTION_DDOT":0}]
